2023-104A               
1 57424U 23104A   26065.78279804  .00015492  00000+0  48200-3 0  9993
2 57424  97.2792 135.5625 0009333 122.1915 238.0234 15.33350758146346
STARLINK-31248          
1 58840U 24017Q   26068.72007628 -.00000598  00000+0 -80500-5 0  9994
2 58840  53.1607 216.7400 0001430  90.1158 270.0006 15.30189376119998
